GSAT0218 (GALILEO 22)   
1 43058U 17079D   26062.57629942  .00000010  00000+0  00000+0 0  9993
2 43058  55.1051 224.4052 0001914 304.2573  55.6627  1.70474504 51219
GOES 17                 
1 43226U 18022A   26063.18586576 -.00000194  00000+0  00000+0 0  9996
2 43226   0.6676  87.5597 0002262 221.3824 190.3972  1.00270371 29372
GSAT0221 (GALILEO 25)   
1 43564U 18060A   26059.54670036 -.00000105  00000+0  00000+0 0  9995
2 43564  57.2051 344.7173 0005804 306.7848  53.1689  1.70475369 47315
GSAT0222 (GALILEO 26)   
1 43565U 18060B   26055.66007047 -.00000092  00000+0  00000+0 0  9996
2 43565  57.2093 344.8256 0004435 285.4820  74.4799  1.70474973 47292
GSAT0219 (GALILEO 23)   
1 43566U 18060C   26053.53475141 -.00000082  00000+0  00000+0 0  9994
2 43566  57.2094 344.8846 0005774 308.6957  51.2673  1.70475208 47235
GSAT0220 (GALILEO 24)   
1 43567U 18060D   26058.44840234 -.00000102  00000+0  00000+0 0  9992
2 43567  57.2075 344.7516 0005301 308.5821  51.3768  1.70475159 47302
BEIDOU-3 M13            
1 43622U 18072A   26061.14480929 -.00000007  00000+0  00000+0 0  9993
2 43622  56.5306  66.1905 0008885 307.5967  52.3573  1.86230769 50661
BEIDOU-3 M14            
1 43623U 18072B   26061.01026698 -.00000006  00000+0  00000+0 0  9998
2 43623  56.5324  66.1890 0006344 328.5825  31.4150  1.86230813 50657
GPS BIII-1              
1 43873U 18109A   26062.55311155  .00000019  00000+0  00000+0 0  9994
2 43873  55.6145  96.3528 0037895 198.2737 333.9980  2.00556711 52958
METEOR-M2 2             
1 44387U 19038A   26063.15524082  .00000382  00000+0  18500-3 0  9990
2 44387  98.9072  48.9303 0001198  14.0025 346.1186 14.24331864346346
GPS BIII-2              
1 44506U 19056A   26063.18852645 -.00000099  00000+0  00000+0 0  9993
2 44506  55.6848 335.3179 0058029 198.1481 333.1946  2.00568296 47967
BEIDOU-3 M24            
1 44542U 19061A   26062.46218233 -.00000017  00000+0  00000+0 0  9998
2 44542  54.3994 186.2929 0008607  21.3432 338.6489  1.86228787 43825
BEIDOU-3 M23            
1 44543U 19061B   26062.31966779 -.00000018  00000+0  00000+0 0  9999
2 44543  54.3976 186.2660 0005077  14.2210 162.4807  1.86227170 43823
BEIDOU-3 M22            
1 44793U 19078A   26059.07985671 -.00000039  00000+0  00000+0 0  9998
2 44793  54.0347 303.6688 0007221  34.9561 325.1493  1.86231871 42613
BEIDOU-3 M21            
1 44794U 19078B   26062.44110506 -.00000055  00000+0  00000+0 0  9999
2 44794  54.0047 303.5128 0005885  39.3589 320.7432  1.86227535 42685
ELEKTRO-L 3             
1 44903U 19095A   26063.10071410 -.00000108  00000+0  00000+0 0  9993
2 44903   0.0462 309.8649 0001616  23.2921 300.9071  1.00270485 22658
GPS BIII-3              
1 45854U 20041A   26063.05410240 -.00000081  00000+0  00000+0 0  9994
2 45854  56.6057  33.0224 0061381 205.2590 171.1803  2.00560640 41934
